OBJECT_NAME,OBJECT_ID,EPOCH,MEAN_MOTION,ECCENTRICITY,INCLINATION,RA_OF_ASC_NODE,ARG_OF_PERICENTER,MEAN_ANOMALY,EPHEMERIS_TYPE,CLASSIFICATION_TYPE,NORAD_CAT_ID,ELEMENT_SET_NO,REV_AT_EPOCH,BSTAR,MEAN_MOTION_DOT,MEAN_MOTION_DDOT
LUCA (RS90S),2025-313AR,2026-06-30T23:10:59.071872,15.24771529,.0008071,97.3935,256.7704,312.6695,47.3862,0,U,67287,999,2807,.41761E-3,.10292E-3,0
2025-313AS,2025-313AS,2026-07-01T03:05:22.168320,15.23269950,.0009935,97.3925,256.6811,304.4895,55.5403,0,U,67288,999,2808,.25511E-3,.5984E-4,0
NASBSAT-1,2025-313AT,2026-07-01T03:05:12.031008,15.26337595,.0007649,97.3935,257.1604,308.9990,51.0567,0,U,67289,999,2811,.63816E-3,.16537E-3,0
SAKHACUBE-CHOLBON (RS18S),2025-313AU,2026-07-01T01:41:57.996096,15.25132506,.0007759,97.3936,256.9337,311.3566,48.7004,0,U,67290,999,2809,.4518E-3,.11263E-3,0
QMR-KWT-2 (RS95S),2025-313AV,2026-07-01T02:40:24.769056,15.26647687,.0007318,97.3928,257.1787,307.4098,52.6474,0,U,67291,999,2811,.68082E-3,.17815E-3,0
SITRO-AIS-64,2025-313AW,2026-07-01T02:58:49.399968,15.25242971,.000746,97.3938,257.0240,310.8011,49.2579,0,U,67292,999,2810,.48122E-3,.12041E-3,0
SCORPION (RS89S),2025-313AX,2026-07-01T03:27:32.020704,15.22913519,.0009484,97.3938,256.6884,303.3284,56.7044,0,U,67293,999,2808,.21499E-3,.4977E-4,0
SITRO-AIS-63,2025-313AY,2026-07-01T02:51:48.910176,15.25294079,.0007368,97.3941,257.0381,311.1119,48.9482,0,U,67294,999,2810,.48212E-3,.12082E-3,0
ZORKIY-2M-5,2025-313AZ,2026-07-01T02:38:13.189632,15.24353210,.0008833,97.3940,256.8862,300.4441,59.5924,0,U,67295,999,2809,.35699E-3,.8678E-4,0
SITRO-AIS-62,2025-313BA,2026-07-01T04:07:31.033344,15.25447023,.0007117,97.3944,257.1279,311.3606,48.7019,0,U,67296,999,2811,.47542E-3,.11967E-3,0
SITRO-AIS-61,2025-313BB,2026-06-29T17:18:33.378624,15.25490826,.00069801,97.3949,255.7170,320.4844,39.5885,0,U,67297,999,2789,.36373257E-3,.9147E-4,0
2025-313BC,2025-313BC,2026-06-30T12:19:22.500768,15.54419285,.00100998,97.3844,259.2652,244.2612,115.7599,0,U,67298,999,2533,.10761507E-2,.71203E-3,0
2025-313BD,2025-313BD,2026-06-28T04:47:55.591872,15.56645912,.00087904,97.3787,257.1466,250.9994,109.0309,0,U,67299,999,2786,.47535138E-3,.33898E-3,0
TIANHUI 7,2025-314A,2026-06-29T14:56:30.619104,15.26079076,.00017299,97.4005,256.1686,233.6770,126.4309,0,U,67300,999,2768,.2377795E-3,.6056E-4,0
SHIJIAN-29A (SJ-29A),2025-315A,2026-06-30T22:44:21.520320,1.00271311,.00035846,3.4311,94.7886,24.7240,213.7227,0,U,67302,999,175,0,-.59E-6,0
CSG-3,2026-001A,2026-07-01T02:32:53.860416,14.82163210,.0001487,97.8889,5.5065,95.4584,264.6798,0,U,67304,999,2652,.48603E-4,.335E-5,0
STARLINK-36490,2026-002A,2026-06-30T16:28:13.291680,15.27606586,.00016164,43.0005,46.8284,276.3904,83.6763,0,U,67305,999,2842,.64204217E-3,.17462E-3,0
STARLINK-36488,2026-002B,2026-07-01T00:00:00.998784,15.27560094,.0001343,43.0023,45.6447,270.9900,135.9478,0,U,67306,999,575,.16735E-2,.4605E-3,0
STARLINK-36481,2026-002C,2026-06-30T23:27:24.179616,15.27616954,.0001352,43.0007,45.5821,277.1519,82.9178,0,U,67307,999,2840,.13177E-2,.36216E-3,0
STARLINK-36449,2026-002D,2026-06-30T23:16:18.007104,15.27614799,.0001599,42.9998,45.5203,278.5671,81.4999,0,U,67308,999,2846,.12515E-2,.34374E-3,0
STARLINK-36482,2026-002E,2026-06-29T23:38:24.279072,15.27589043,.00014444,43.0000,51.0301,267.8447,92.2239,0,U,67309,999,2825,.1026821E-2,.28109E-3,0
STARLINK-36491,2026-002F,2026-06-30T23:42:12.267072,15.27604718,.0001793,43.0014,45.6664,277.3480,82.7168,0,U,67310,999,2840,.83936E-3,.22925E-3,0
STARLINK-36495,2026-002G,2026-06-30T15:05:07.996128,15.27638764,.00012548,43.0021,47.2589,272.8238,87.2470,0,U,67311,999,2851,.98504811E-3,.26992E-3,0
STARLINK-36485,2026-002H,2026-06-30T16:18:58.754016,15.27613387,.00019167,43.0036,46.7817,297.3638,62.7018,0,U,67312,999,2836,.88665491E-3,.24242E-3,0
STARLINK-36445,2026-002J,2026-06-29T22:46:48.623232,15.27587107,.00011542,43.0037,51.6273,279.4878,80.5844,0,U,67313,999,2840,.69218155E-3,.18838E-3,0
STARLINK-36476,2026-002K,2026-06-30T23:21:51.211296,15.27594230,.0001076,42.9998,45.5466,268.3896,91.6832,0,U,67314,999,2839,.75861E-3,.20681E-3,0
STARLINK-36463,2026-002L,2026-06-30T16:35:37.242528,15.27604024,.00021263,43.0031,46.8686,277.4924,82.5686,0,U,67315,999,2842,.10133734E-2,.2775E-3,0
STARLINK-36461,2026-002M,2026-06-30T16:30:04.117824,15.27608723,.00021359,43.0046,46.8398,273.5639,86.4968,0,U,67316,999,2852,.1106396E-2,.30336E-3,0
STARLINK-36450,2026-002N,2026-06-30T16:04:22.619136,15.27590253,.00015783,43.0022,47.5698,258.5991,101.4684,0,U,67317,999,2851,.7808893E-3,.21295E-3,0
STARLINK-36498,2026-002P,2026-06-30T23:29:14.871840,15.27622186,.0001231,43.0004,45.5908,271.9182,88.1528,0,U,67318,999,2846,.14009E-2,.38539E-3,0
