LUCA (RS90S)            
1 67287U 25313AR  26181.96596148  .00010292  00000+0  41761-3 0  9995
2 67287  97.3935 256.7704 0008071 312.6695  47.3862 15.24771529 28077
2025-313AS              
1 67288U 25313AS  26182.12872880  .00005984  00000+0  25511-3 0  9992
2 67288  97.3925 256.6811 0009935 304.4895  55.5403 15.23269950 28088
NASBSAT-1               
1 67289U 25313AT  26182.12861147  .00016537  00000+0  63816-3 0  9993
2 67289  97.3935 257.1604 0007649 308.9990  51.0567 15.26337595 28111
SAKHACUBE-CHOLBON (RS1*)
1 67290U 25313AU  26182.07081014  .00011263  00000+0  45180-3 0  9991
2 67290  97.3936 256.9337 0007759 311.3566  48.7004 15.25132506 28093
QMR-KWT-2 (RS95S)       
1 67291U 25313AV  26182.11139779  .00017815  00000+0  68082-3 0  9994
2 67291  97.3928 257.1787 0007318 307.4098  52.6474 15.26647687 28114
SITRO-AIS-64            
1 67292U 25313AW  26182.12418287  .00012041  00000+0  48122-3 0  9999
2 67292  97.3938 257.0240 0007460 310.8011  49.2579 15.25242971 28103
SCORPION (RS89S)        
1 67293U 25313AX  26182.14412061  .00004977  00000+0  21499-3 0  9993
2 67293  97.3938 256.6884 0009484 303.3284  56.7044 15.22913519 28087
SITRO-AIS-63            
1 67294U 25313AY  26182.11931609  .00012082  00000+0  48212-3 0  9993
2 67294  97.3941 257.0381 0007368 311.1119  48.9482 15.25294079 28100
ZORKIY-2M-5             
1 67295U 25313AZ  26182.10987488  .00008678  00000+0  35699-3 0  9990
2 67295  97.3940 256.8862 0008833 300.4441  59.5924 15.24353210 28097
SITRO-AIS-62            
1 67296U 25313BA  26182.17188696  .00011967  00000+0  47542-3 0  9997
2 67296  97.3944 257.1279 0007117 311.3606  48.7019 15.25447023 28111
SITRO-AIS-61            
1 67297U 25313BB  26180.72121966  .00009147  00000+0  36373-3 0  9991
2 67297  97.3949 255.7170 0006980 320.4844  39.5885 15.25490826 27895
2025-313BC              
1 67298U 25313BC  26181.51345487  .00071203  00000+0  10762-2 0  9991
2 67298  97.3844 259.2652 0010099 244.2612 115.7599 15.54419285 25334
2025-313BD              
1 67299U 25313BD  26179.19994898  .00033898  00000+0  47535-3 0  9996
2 67299  97.3787 257.1466 0008790 250.9994 109.0309 15.56645912 27868
TIANHUI 7               
1 67300U 25314A   26180.62257661  .00006056  00000+0  23778-3 0  9999
2 67300  97.4005 256.1686 0001729 233.6770 126.4309 15.26079076 27685
SHIJIAN-29A (SJ-29A)    
1 67302U 25315A   26181.94747130 -.00000059  00000+0  00000+0 0  9990
2 67302   3.4311  94.7886 0003584  24.7240 213.7227  1.00271311  1756
CSG-3                   
1 67304U 26001A   26182.10617894  .00000335  00000+0  48603-4 0  9999
2 67304  97.8889   5.5065 0001487  95.4584 264.6798 14.82163210 26522
STARLINK-36490          
1 67305U 26002A   26181.68626495  .00017462  00000+0  64204-3 0  9993
2 67305  43.0005  46.8284 0001616 276.3904  83.6763 15.27606586 28427
STARLINK-36488          
1 67306U 26002B   26182.00001156  .00046050  00000+0  16735-2 0  9992
2 67306  43.0023  45.6447 0001343 270.9900 135.9478 15.27560094  5757
STARLINK-36481          
1 67307U 26002C   26181.97736319  .00036216  00000+0  13177-2 0  9994
2 67307  43.0007  45.5821 0001352 277.1519  82.9178 15.27616954 28402
STARLINK-36449          
1 67308U 26002D   26181.96965286  .00034374  00000+0  12515-2 0  9999
2 67308  42.9998  45.5203 0001599 278.5671  81.4999 15.27614799 28467
STARLINK-36482          
1 67309U 26002E   26180.98500323  .00028109  00000+0  10268-2 0  9990
2 67309  43.0000  51.0301 0001444 267.8447  92.2239 15.27589043 28253
STARLINK-36491          
1 67310U 26002F   26181.98764198  .00022925  00000+0  83936-3 0  9998
2 67310  43.0014  45.6664 0001793 277.3480  82.7168 15.27604718 28400
STARLINK-36495          
1 67311U 26002G   26181.62856477  .00026992  00000+0  98505-3 0  9998
2 67311  43.0021  47.2589 0001254 272.8238  87.2470 15.27638764 28512
STARLINK-36485          
1 67312U 26002H   26181.67984669  .00024242  00000+0  88665-3 0  9991
2 67312  43.0036  46.7817 0001916 297.3638  62.7018 15.27613387 28361
STARLINK-36445          
1 67313U 26002J   26180.94917388  .00018838  00000+0  69218-3 0  9992
2 67313  43.0037  51.6273 0001154 279.4878  80.5844 15.27587107 28405
STARLINK-36476          
1 67314U 26002K   26181.97350939  .00020681  00000+0  75861-3 0  9990
2 67314  42.9998  45.5466 0001076 268.3896  91.6832 15.27594230 28399
STARLINK-36463          
1 67315U 26002L   26181.69140327  .00027750  00000+0  10134-2 0  9993
2 67315  43.0031  46.8686 0002126 277.4924  82.5686 15.27604024 28421
STARLINK-36461          
1 67316U 26002M   26181.68754766  .00030336  00000+0  11064-2 0  9998
2 67316  43.0046  46.8398 0002135 273.5639  86.4968 15.27608723 28525
STARLINK-36450          
1 67317U 26002N   26181.66970624  .00021295  00000+0  78089-3 0  9995
2 67317  43.0022  47.5698 0001578 258.5991 101.4684 15.27590253 28515
STARLINK-36498          
1 67318U 26002P   26181.97864435  .00038539  00000+0  14009-2 0  9992
2 67318  43.0004  45.5908 0001231 271.9182  88.1528 15.27622186 28468
